STARLINK-2603           
1 48375C 21038Y   22011.51287351  .00007625  00000-0  51088-3 0   119
2 48375  53.0539 326.9871 0001846  63.3291 200.6381 15.06391192    11
STARLINK-2610           
1 48376C 21038Z   22011.50906036 -.00012370  00000-0 -82914-3 0   114
2 48376  53.0544 327.0092 0002025  58.0800 205.2301 15.06395373    10
STARLINK-2499           
1 48377C 21038AA  22011.50524353  .00007347  00000-0  49249-3 0   113
2 48377  53.0549 327.0166 0001746  63.3924 199.1928 15.06375073    14
STARLINK-2526           
1 48378C 21038AB  22011.52642135  .00007058  00000-0  47311-3 0   112
2 48378  53.0535 326.9297 0001849  64.1476 333.3521 15.06375873    17
STARLINK-2612           
1 48379C 21038AC  22011.52225464  .00006491  00000-0  43503-3 0   114
2 48379  53.0541 326.9423 0001847  66.4664 328.4167 15.06377843    18
STARLINK-2614           
1 48380C 21038AD  22011.52344926  .00007726  00000-0  51770-3 0   118
2 48380  53.0554 326.9312 0001679  61.1064 205.3797 15.06387024    14
STARLINK-2630           
1 48381C 21038AE  22011.51792561  .00006455  00000-0  43254-3 0   116
2 48381  53.0533 326.9663 0001932  58.4461 332.9461 15.06389457    10
STARLINK-2585           
1 48382C 21038AF  22011.51426738  .00006528  00000-0  43739-3 0   116
2 48382  53.0551 326.9736 0002171  56.1835 335.3629 15.06387564    18
STARLINK-2599           
1 48383C 21038AG  22011.51044847  .00006651  00000-0  44571-3 0   116
2 48383  53.0539 326.9784 0001842  60.8659 329.9570 15.06382456    17
STARLINK-2601           
1 48384C 21038AH  22011.50680526  .00007213  00000-0  48333-3 0   111
2 48384  53.0555 326.9985 0001806  58.5065 332.5579 15.06384928    19
STARLINK-2598           
1 48385C 21038AJ  22011.50298117  .00007433  00000-0  49807-3 0   114
2 48385  53.0549 327.0145 0001881  61.5393 328.7675 15.06385873    18
STARLINK-2606           
1 48386C 21038AK  22011.48964618  .00006861  00000-0  45995-3 0   116
2 48386  53.0564 322.0925 0001834  59.9633 330.6025 15.06372346    15
STARLINK-2600           
1 48387C 21038AL  22011.49953021  .00007632  00000-0  51152-3 0   113
2 48387  53.0536 322.0473 0001840  58.4440 205.7597 15.06377441    17
STARLINK-2594           
1 48388C 21038AM  22011.49293119  .00007291  00000-0  48855-3 0   116
2 48388  53.0544 322.0614 0001958  64.8544 198.4155 15.06387471    12
STARLINK-1904           
1 48389C 21038AN  22011.48042120  .00007271  00000-0  48741-3 0   112
2 48389  53.0548 317.1167 0001791  56.2422 206.6438 15.06374071    18
STARLINK-2586           
1 48390C 21038AP  22011.47658657  .00007078  00000-0  47432-3 0   112
2 48390  53.0548 317.1447 0001854  60.1632 201.9280 15.06382472    15
STARLINK-2607           
1 48391C 21038AQ  22011.49760244  .00006397  00000-0  42869-3 0   113
2 48391  53.0545 317.0477 0001796  58.1867 337.9345 15.06383099    15
STARLINK-2605           
1 48392C 21038AR  22011.49396171  .00006311  00000-0  42297-3 0   119
2 48392  53.0548 317.0623 0001962  62.2355 334.1390 15.06379920    12
STARLINK-2602           
1 48393C 21038AS  22011.48945618  .00006243  00000-0  41852-3 0   115
2 48393  53.0557 317.0921 0001886  62.1135 329.8004 15.06371748    17
STARLINK-2573           
1 48394C 21038AT  22011.48563466 -.00012257  00000-0 -82160-3 0   114
2 48394  53.0548 317.0953 0001922  55.7856 335.4203 15.06393380    12
STARLINK-2574           
1 48395C 21038AU  22011.51390521  .00006835  00000-0  45812-3 0   115
2 48395  53.0553 316.9680 0002027  52.7638 216.9424 15.06376895    16
STARLINK-2575           
1 48396C 21038AV  22011.52640490  .00005391  00000-0  36117-3 0   114
2 48396  53.0564 316.9125 0001753  59.3755 213.0352 15.06394727    13
STARLINK-2590           
1 48397C 21038AW  22011.52258554 -.00004764  00000-0 -31934-3 0   118
2 48397  53.0543 316.9430 0001850  61.1702 210.5345 15.06384232    15
STARLINK-2588           
1 48398C 21038AX  22011.51880884  .00005661  00000-0  37942-3 0   115
2 48398  53.0556 316.9524 0002004  60.1725 211.0016 15.06382222    18
STARLINK-2587           
1 48399C 21038AY  22011.51495652 -.00018976  00000-0 -12717-2 0   118
2 48399  53.0546 316.9786 0001955  62.4867 207.8072 15.06408873    10
STARLINK-2576           
1 48400C 21038AZ  22011.51115822  .00006806  00000-0  45598-3 0   110
2 48400  53.0561 316.9924 0001869  62.2169 207.4569 15.06393261    12
STARLINK-2571           
1 48401C 21038BA  22011.47935602  .00007212  00000-0  48324-3 0   114
2 48401  53.0545 317.1324 0002029  63.0349 199.1966 15.06388284    17
STARLINK-2560           
1 48402C 21038BB  22011.44906654  .00008752  00000-0  58663-3 0   114
2 48402  53.0544 317.2745 0001743  52.5161 260.2391 15.06375464    10
STARLINK-2561           
1 48403C 21038BC  22011.50349370  .00007259  00000-0  48643-3 0   116
2 48403  53.0551 317.0135 0002048  59.5495 208.5361 15.06387907    13
STARLINK-2593           
1 48404C 21038BD  22011.49965875  .00007501  00000-0  50259-3 0   115
2 48404  53.0542 317.0464 0002138  63.5712 203.7068 15.06391219    18
STARLINK-2570           
1 48405C 21038BE  22011.49567523  .00007870  00000-0  52740-3 0   110
2 48405  53.0546 317.0656 0001892  64.1132 201.5313 15.06381112    15
STARLINK-2568           
1 48406C 21038BF  22011.49188370 -.00016204  00000-0 -10858-2 0   116
2 48406  53.0549 317.0698 0001835  59.5735 205.5038 15.06410069    11
STARLINK-2595           
1 48407C 21038BG  22011.48806413  .00007622  00000-0  51075-3 0   110
2 48407  53.0534 317.0827 0001906  63.4007 200.9631 15.06387304    18
STARLINK-2592           
1 48408C 21038BH  22011.48423148 -.00003006  00000-0 -20148-3 0   112
2 48408  53.0544 317.0985 0001610  63.9925 199.5960 15.06383764    15
STARLINK-2596           
1 48409C 21038BJ  22011.50818539  .00007744  00000-0  51907-3 0   116
2 48409  53.0550 321.9990 0001971  60.9527 205.0811 15.06375161    18
STARLINK-2563           
1 48410C 21038BK  22011.51788720  .00006103  00000-0  40906-3 0   112
2 48410  53.0559 271.9547 0002104  65.7957 227.8747 15.06379287    13
STARLINK-2505           
1 48411C 21038BL  22011.52224938  .00004681  00000-0  31376-3 0   110
2 48411  53.0549 266.9334 0002042  65.7096 159.1432 15.06375649    12
STARLINK-2581           
1 48412C 21038BM  22011.51215097  .00005165  00000-0  34608-3 0   115
2 48412  53.0555 266.9788 0002278  61.0073 234.1774 15.06389190    17
STARLINK-2461           
1 48428C 21040A   22011.52708647 -.00021259  00000-0 -14239-2 0   115
2 48428  53.0534 161.9107 0001776  82.4633  26.0441 15.06433204    16
STARLINK-2749           
1 48429C 21040B   22011.49912522 -.00015836  00000-0 -10611-2 0   115
2 48429  53.0544 132.0367 0001492  90.6602  36.3503 15.06411879    14
STARLINK-2729           
1 48430C 21040C   22011.51806862  .00001964  00000-0  13164-3 0   111
2 48430  53.0541 131.9554 0001514  99.5138 310.2837 15.06382580    16
STARLINK-2700           
1 48431C 21040D   22011.51058359  .00004501  00000-0  30153-3 0   119
2 48431  53.0536 126.9796 0001874 100.9770 195.7053 15.06397100    11
STARLINK-2680           
1 48432C 21040E   22011.52100852  .00003330  00000-0  22313-3 0   115
2 48432  53.0546 121.9396 0001515 106.1433 194.6198 15.06392325    12
STARLINK-2699           
1 48433C 21040F   22011.49824870  .00001353  00000-0  90732-4 0   119
2 48433  53.0537 127.0347 0001370 110.2199 299.5541 15.06377986    13
STARLINK-2692           
1 48434C 21040G   22011.50693079  .00000603  00000-0  40422-4 0   115
2 48434  53.0565 132.0072 0001881 105.7685 303.5932 15.06382492    10
STARLINK-2633           
1 48435C 21040H   22011.49533458 -.00001145  00000-0 -80198-4 0   116
2 48435  53.0527 141.2179 0001599  85.3989  33.0683 15.04753193    11
STARLINK-2639           
1 48436C 21040J   22011.49532339 -.00000029  00000-0 -19727-5 0   115
2 48436  53.0527 157.0517 0002014  85.2308  18.5180 15.06403477    19
STARLINK-2642           
1 48437C 21040K   22011.51444279 -.00003217  00000-0 -21547-3 0   117
2 48437  53.0400 167.0288 0001862  80.3171 212.0499 15.06416022    14
STARLINK-2640           
1 48438C 21040L   22011.49133988 -.00017381  00000-0 -11643-2 0   119
2 48438  53.0533 157.0835 0002002  80.7208  21.3067 15.06422570    18
STARLINK-2583           
1 48439C 21040M   22011.52398271 -.00024584  00000-0 -16471-2 0   119
2 48439  53.0526 156.9386 0001828  83.8380 215.3716 15.06425377    14
STARLINK-2682           
1 48440C 21040N   22011.52049050 -.00004829  00000-0 -32364-3 0   119
2 48440  53.0546 156.9472 0001796  73.1242 227.1714 15.06394097    10
STARLINK-2702           
1 48441C 21040P   22011.51651225 -.00005174  00000-0 -34670-3 0   118
2 48441  53.0537 156.9607 0001677  83.4547 215.2374 15.06398011    11
STARLINK-2644           
1 48442C 21040Q   22011.51267792 -.00005112  00000-0 -34257-3 0   114
2 48442  53.0523 156.9678 0002046  94.0342 203.8479 15.06398475    10
STARLINK-2663           
1 48443C 21040R   22011.50763690 -.00000454  00000-0 -30397-4 0   118
2 48443  53.0527 156.9923 0001737  89.8818 200.6710 15.06387590    13
STARLINK-2645           
1 48444C 21040S   22011.52429008 -.00015244  00000-0 -10215-2 0   111
2 48444  53.0529 156.9231 0001898  92.1405 308.7294 15.06410190    15
STARLINK-2634           
1 48445C 21040T   22011.52064751 -.00005354  00000-0 -35884-3 0   113
2 48445  53.0539 156.9463 0001955  91.8387 309.3070 15.06394571    16
STARLINK-2247           
1 48446C 21040U   22011.46094822 -.00014971  00000-0 -10029-2 0   117
2 48446  53.0529 157.2060 0002333  87.2861   9.9323 15.06417503    15
STARLINK-2269           
1 48447C 21040V   22011.45921505 -.00001597  00000-0 -10704-3 0   115
2 48447  53.0534 157.2136 0001890  89.1588  18.6238 15.06393277    13
STARLINK-2632           
1 48448C 21040W   22011.51961198 -.00015759  00000-0 -10557-2 0   115
2 48448  53.0542 156.9476 0001991  88.7832 211.7944 15.06417263    17
